start=new Date('2022-11-15T00:00:00.000Z').valueOf();
sats=[{"MEAN_ELEMENT_THEORY":"SGP4","RCS_SIZE":"LARGE","MEAN_MOTION_DDOT":"0.0000000000000","EPOCH":"2022-11-14T22:00:00.999936","TLE_LINE1":"1 53566U 22101AR  22318.91667824 -.01150148  00000-0 -75127-1 0  9995","MEAN_ANOMALY":"136.9616","SEMIMAJOR_AXIS":"6912.987","OBJECT_ID":"2022-101AR","SITE":"AFETR","RA_OF_ASC_NODE":"89.4772","LAUNCH_DATE":"2022-08-19","ARG_OF_PERICENTER":"81.9057","REV_AT_EPOCH":"130","ELEMENT_SET_NO":"999","ECCENTRICITY":"0.00014300","CENTER_NAME":"EARTH","OBJECT_NAME":"STARLINK-4576","INCLINATION":"53.2172","FILE":"3656014","PERIAPSIS":"533.863","PERIOD":"95.336","GP_ID":"217787973","MEAN_MOTION_DOT":"-0.01150148","APOAPSIS":"535.840","BSTAR":"-0.07512700000000","NORAD_CAT_ID":"53566","CLASSIFICATION_TYPE":"U","REF_FRAME":"TEME","EPHEMERIS_TYPE":"0","TLE_LINE2":"2 53566  53.2172  89.4772 0001430  81.9057 136.9616 15.10442371  1306","OBJECT_TYPE":"PAYLOAD","COUNTRY_CODE":"US","DECAY_DATE":null,"TIME_SYSTEM":"UTC","MEAN_MOTION":"15.10442371"},{"BSTAR":"-0.04279300000000","CLASSIFICATION_TYPE":"U","REF_FRAME":"TEME","NORAD_CAT_ID":"53567","MEAN_MOTION_DOT":"-0.00648447","APOAPSIS":"538.969","DECAY_DATE":null,"TIME_SYSTEM":"UTC","OBJECT_TYPE":"PAYLOAD","COUNTRY_CODE":"US","MEAN_MOTION":"15.09403264","EPHEMERIS_TYPE":"0","TLE_LINE2":"2 53567  53.2172  89.5920 0001366  50.5049 109.8302 15.09403264  1301","OBJECT_ID":"2022-101AS","SEMIMAJOR_AXIS":"6916.159","LAUNCH_DATE":"2022-08-19","RA_OF_ASC_NODE":"89.5920","SITE":"AFETR","MEAN_MOTION_DDOT":"0.0000000000000","MEAN_ELEMENT_THEORY":"SGP4","RCS_SIZE":"LARGE","MEAN_ANOMALY":"109.8302","EPOCH":"2022-11-14T22:00:00.999936","TLE_LINE1":"1 53567U 22101AS  22318.91667824 -.00648447  00000-0 -42793-1 0  9992","PERIAPSIS":"537.080","GP_ID":"217788293","PERIOD":"95.402","REV_AT_EPOCH":"130","ELEMENT_SET_NO":"999","ECCENTRICITY":"0.00013660","CENTER_NAME":"EARTH","ARG_OF_PERICENTER":"50.5049","FILE":"3656014","INCLINATION":"53.2172","OBJECT_NAME":"STARLINK-4585"},{"APOAPSIS":"533.295","MEAN_MOTION_DOT":"-0.01149259","NORAD_CAT_ID":"53568","CLASSIFICATION_TYPE":"U","REF_FRAME":"TEME","BSTAR":"-0.07320100000000","TLE_LINE2":"2 53568  53.2172  89.3644 0001721  42.9557 233.2663 15.11342912  1304","EPHEMERIS_TYPE":"0","MEAN_MOTION":"15.11342912","TIME_SYSTEM":"UTC","DECAY_DATE":null,"OBJECT_TYPE":"PAYLOAD","COUNTRY_CODE":"US","MEAN_ANOMALY":"233.2663","EPOCH":"2022-11-14T22:00:00.999936","TLE_LINE1":"1 53568U 22101AT  22318.91667824 -.01149259  00000-0 -73201-1 0  9999","MEAN_MOTION_DDOT":"0.0000000000000","MEAN_ELEMENT_THEORY":"SGP4","RCS_SIZE":"LARGE","LAUNCH_DATE":"2022-08-19","SITE":"AFETR","RA_OF_ASC_NODE":"89.3644","SEMIMAJOR_AXIS":"6910.241","OBJECT_ID":"2022-101AT","INCLINATION":"53.2172","FILE":"3656014","OBJECT_NAME":"STARLINK-4583","REV_AT_EPOCH":"130","ELEMENT_SET_NO":"999","CENTER_NAME":"EARTH","ECCENTRICITY":"0.00017210","ARG_OF_PERICENTER":"42.9557","GP_ID":"217787804","PERIOD":"95.280","PERIAPSIS":"530.916"},{"APOAPSIS":"536.801","MEAN_MOTION_DOT":"-0.01133995","REF_FRAME":"TEME","CLASSIFICATION_TYPE":"U","NORAD_CAT_ID":"53569","BSTAR":"-0.07461900000000","TLE_LINE2":"2 53569  53.2172  89.5150 0001459  64.2545 135.2297 15.10134331  1308","EPHEMERIS_TYPE":"0","MEAN_MOTION":"15.10134331","COUNTRY_CODE":"US","OBJECT_TYPE":"PAYLOAD","TIME_SYSTEM":"UTC","DECAY_DATE":null,"TLE_LINE1":"1 53569U 22101AU  22318.91667824 -.01133995  00000-0 -74619-1 0  9994","EPOCH":"2022-11-14T22:00:00.999936","MEAN_ANOMALY":"135.2297","RCS_SIZE":"LARGE","MEAN_ELEMENT_THEORY":"SGP4","MEAN_MOTION_DDOT":"0.0000000000000","SITE":"AFETR","RA_OF_ASC_NODE":"89.5150","LAUNCH_DATE":"2022-08-19","OBJECT_ID":"2022-101AU","SEMIMAJOR_AXIS":"6913.927","OBJECT_NAME":"STARLINK-4582","INCLINATION":"53.2172","FILE":"3656014","ARG_OF_PERICENTER":"64.2545","CENTER_NAME":"EARTH","ELEMENT_SET_NO":"999","ECCENTRICITY":"0.00014590","REV_AT_EPOCH":"130","PERIOD":"95.356","GP_ID":"217788143","PERIAPSIS":"534.783"},{"APOAPSIS":"534.014","MEAN_MOTION_DOT":"-0.01148525","REF_FRAME":"TEME","CLASSIFICATION_TYPE":"U","NORAD_CAT_ID":"53570","BSTAR":"-0.07376900000000","TLE_LINE2":"2 53570  53.2172  89.4019 0001438  65.4225 191.8127 15.11042756  1308","EPHEMERIS_TYPE":"0","MEAN_MOTION":"15.11042756","OBJECT_TYPE":"PAYLOAD","COUNTRY_CODE":"US","DECAY_DATE":null,"TIME_SYSTEM":"UTC","EPOCH":"2022-11-14T22:00:00.999936","TLE_LINE1":"1 53570U 22101AV  22318.91667824 -.01148525  00000-0 -73769-1 0  9996","MEAN_ANOMALY":"191.8127","MEAN_ELEMENT_THEORY":"SGP4","RCS_SIZE":"LARGE","MEAN_MOTION_DDOT":"0.0000000000000","RA_OF_ASC_NODE":"89.4019","SITE":"AFETR","LAUNCH_DATE":"2022-08-19","SEMIMAJOR_AXIS":"6911.156","OBJECT_ID":"2022-101AV","OBJECT_NAME":"STARLINK-4550","FILE":"3656014","INCLINATION":"53.2172","ARG_OF_PERICENTER":"65.4225","REV_AT_EPOCH":"130","ECCENTRICITY":"0.00014380","ELEMENT_SET_NO":"999","CENTER_NAME":"EARTH","PERIOD":"95.298","GP_ID":"217787608","PERIAPSIS":"532.027"},{"BSTAR":"-0.07435800000000","NORAD_CAT_ID":"53571","REF_FRAME":"TEME","CLASSIFICATION_TYPE":"U","MEAN_MOTION_DOT":"-0.01148067","APOAPSIS":"534.909","DECAY_DATE":null,"TIME_SYSTEM":"UTC","COUNTRY_CODE":"US","OBJECT_TYPE":"PAYLOAD","MEAN_MOTION":"15.10741907","EPHEMERIS_TYPE":"0","TLE_LINE2":"2 53571  53.2172  89.4389 0001405  81.1828 156.9358 15.10741907  1308","OBJECT_ID":"2022-101AW","SEMIMAJOR_AXIS":"6912.073","LAUNCH_DATE":"2022-08-19","SITE":"AFETR","RA_OF_ASC_NODE":"89.4389","MEAN_MOTION_DDOT":"0.0000000000000","RCS_SIZE":"LARGE","MEAN_ELEMENT_THEORY":"SGP4","MEAN_ANOMALY":"156.9358","TLE_LINE1":"1 53571U 22101AW  22318.91667824 -.01148067  00000-0 -74358-1 0  9993","EPOCH":"2022-11-14T22:00:00.999936","PERIAPSIS":"532.967","GP_ID":"217788607","PERIOD":"95.317","ELEMENT_SET_NO":"999","ECCENTRICITY":"0.00014050","CENTER_NAME":"EARTH","REV_AT_EPOCH":"130","ARG_OF_PERICENTER":"81.1828","FILE":"3656014","INCLINATION":"53.2172","OBJECT_NAME":"STARLINK-4584"},{"EPHEMERIS_TYPE":"0","TLE_LINE2":"2 53572  53.2171  89.2634 0001205  90.1160 237.4830 15.12157622  1303","OBJECT_TYPE":"PAYLOAD","COUNTRY_CODE":"US","DECAY_DATE":null,"TIME_SYSTEM":"UTC","MEAN_MOTION":"15.12157622","MEAN_MOTION_DOT":"-0.01149519","APOAPSIS":"530.456","BSTAR":"-0.07157500000000","NORAD_CAT_ID":"53572","CLASSIFICATION_TYPE":"U","REF_FRAME":"TEME","ARG_OF_PERICENTER":"90.1160","REV_AT_EPOCH":"130","ELEMENT_SET_NO":"999","ECCENTRICITY":"0.00012050","CENTER_NAME":"EARTH","OBJECT_NAME":"STARLINK-4555","FILE":"3656014","INCLINATION":"53.2171","PERIAPSIS":"528.791","PERIOD":"95.228","GP_ID":"217787438","MEAN_ELEMENT_THEORY":"SGP4","RCS_SIZE":"LARGE","MEAN_MOTION_DDOT":"0.0000000000000","EPOCH":"2022-11-14T22:00:00.999936","TLE_LINE1":"1 53572U 22101AX  22318.91667824 -.01149519  00000-0 -71575-1 0  9995","MEAN_ANOMALY":"237.4830","SEMIMAJOR_AXIS":"6907.758","OBJECT_ID":"2022-101AX","SITE":"AFETR","RA_OF_ASC_NODE":"89.2634","LAUNCH_DATE":"2022-08-19"},{"MEAN_ELEMENT_THEORY":"SGP4","RCS_SIZE":"LARGE","MEAN_MOTION_DDOT":"0.0000000000000","EPOCH":"2022-11-14T22:00:00.999936","TLE_LINE1":"1 53573U 22101AY  22318.91667824 -.01149551  00000-0 -72615-1 0  9998","MEAN_ANOMALY":"224.3122","OBJECT_ID":"2022-101AY","SEMIMAJOR_AXIS":"6909.326","SITE":"AFETR","RA_OF_ASC_NODE":"89.3269","LAUNCH_DATE":"2022-08-19","ARG_OF_PERICENTER":"70.7638","REV_AT_EPOCH":"130","ECCENTRICITY":"0.00013170","ELEMENT_SET_NO":"999","CENTER_NAME":"EARTH","OBJECT_NAME":"STARLINK-4547","FILE":"3656014","INCLINATION":"53.2171","PERIAPSIS":"530.281","PERIOD":"95.261","GP_ID":"217788456","MEAN_MOTION_DOT":"-0.01149551","APOAPSIS":"532.101","BSTAR":"-0.07261500000000","CLASSIFICATION_TYPE":"U","NORAD_CAT_ID":"53573","REF_FRAME":"TEME","EPHEMERIS_TYPE":"0","TLE_LINE2":"2 53573  53.2171  89.3269 0001317  70.7638 224.3122 15.11642889  1309","OBJECT_TYPE":"PAYLOAD","COUNTRY_CODE":"US","TIME_SYSTEM":"UTC","DECAY_DATE":null,"MEAN_MOTION":"15.11642889"},{"APOAPSIS":"529.505","MEAN_MOTION_DOT":"-0.01149279","REF_FRAME":"TEME","NORAD_CAT_ID":"53574","CLASSIFICATION_TYPE":"U","BSTAR":"-0.07084500000000","TLE_LINE2":"2 53574  53.2171  89.2173 0001398  52.5368 298.4599 15.12513589  1305","EPHEMERIS_TYPE":"0","MEAN_MOTION":"15.12513589","TIME_SYSTEM":"UTC","DECAY_DATE":null,"OBJECT_TYPE":"PAYLOAD","COUNTRY_CODE":"US","MEAN_ANOMALY":"298.4599","EPOCH":"2022-11-14T22:00:00.999936","TLE_LINE1":"1 53574U 22101AZ  22318.91667824 -.01149279  00000-0 -70845-1 0  9999","MEAN_MOTION_DDOT":"0.0000000000000","MEAN_ELEMENT_THEORY":"SGP4","RCS_SIZE":"LARGE","LAUNCH_DATE":"2022-08-19","SITE":"AFETR","RA_OF_ASC_NODE":"89.2173","OBJECT_ID":"2022-101AZ","SEMIMAJOR_AXIS":"6906.674","INCLINATION":"53.2171","FILE":"3656014","OBJECT_NAME":"STARLINK-4559","REV_AT_EPOCH":"130","ECCENTRICITY":"0.00013980","ELEMENT_SET_NO":"999","CENTER_NAME":"EARTH","ARG_OF_PERICENTER":"52.5368","GP_ID":"217787974","PERIOD":"95.206","PERIAPSIS":"527.574"},{"OBJECT_TYPE":"PAYLOAD","COUNTRY_CODE":"US","TIME_SYSTEM":"UTC","DECAY_DATE":null,"MEAN_MOTION":"15.11943684","EPHEMERIS_TYPE":"0","TLE_LINE2":"2 53575  53.2171  89.2901 0001363  59.8730 253.9201 15.11943684  1308","BSTAR":"-0.07201600000000","NORAD_CAT_ID":"53575","CLASSIFICATION_TYPE":"U","REF_FRAME":"TEME","MEAN_MOTION_DOT":"-0.01149703","APOAPSIS":"531.217","PERIAPSIS":"529.333","PERIOD":"95.242","GP_ID":"217788294","ARG_OF_PERICENTER":"59.8730","REV_AT_EPOCH":"130","ELEMENT_SET_NO":"999","ECCENTRICITY":"0.00013630","CENTER_NAME":"EARTH","OBJECT_NAME":"STARLINK-4551","INCLINATION":"53.2171","FILE":"3656014","OBJECT_ID":"2022-101BA","SEMIMAJOR_AXIS":"6908.410","SITE":"AFETR","RA_OF_ASC_NODE":"89.2901","LAUNCH_DATE":"2022-08-19","MEAN_ELEMENT_THEORY":"SGP4","RCS_SIZE":"LARGE","MEAN_MOTION_DDOT":"0.0000000000000","EPOCH":"2022-11-14T22:00:00.999936","TLE_LINE1":"1 53575U 22101BA  22318.91667824 -.01149703  00000-0 -72016-1 0  9994","MEAN_ANOMALY":"253.9201"}];
